[{"OBJECT_NAME":"YAOGAN-31 03B","OBJECT_ID":"2021-014C","EPOCH":"2026-03-10T00:24:01.951200","MEAN_MOTION":13.45442112,"ECCENTRICITY":0.01685902,"INCLINATION":63.4006,"RA_OF_ASC_NODE":93.5208,"ARG_OF_PERICENTER":0.5266,"MEAN_ANOMALY":359.5908,"EPHEMERIS_TYPE":0,"CLASSIFICATION_TYPE":"U","NORAD_CAT_ID":47693,"ELEMENT_SET_NO":999,"REV_AT_EPOCH":24733,"BSTAR":0.00044455044,"MEAN_MOTION_DOT":1.97e-6,"MEAN_MOTION_DDOT":0},{"OBJECT_NAME":"DELTA 1 DEB","OBJECT_ID":"1975-052CS","EPOCH":"2026-03-09T17:48:42.801984","MEAN_MOTION":13.33581484,"ECCENTRICITY":0.00611601,"INCLINATION":100.2163,"RA_OF_ASC_NODE":334.8453,"ARG_OF_PERICENTER":171.5006,"MEAN_ANOMALY":254.9263,"EPHEMERIS_TYPE":0,"CLASSIFICATION_TYPE":"U","NORAD_CAT_ID":21372,"ELEMENT_SET_NO":999,"REV_AT_EPOCH":69290,"BSTAR":0.000194744,"MEAN_MOTION_DOT":5.2e-7,"MEAN_MOTION_DDOT":0}]
